STARLINK-3136
1 29443C 21104AM  21325.18960637 -.00839951  00000-0 -27794-2 0  3256
2 29443  53.2175  95.6623 0032485  63.3556 162.3408 15.89551247    12
